{
    "links": {
        "self": "http://www.neowsapp.com/rest/v1/neo/54017293?api_key=iIulBulltgU6a56xZRHN4H3l9WmuAYTsLGpBGhQ2"
    },
    "id": "54017293",
    "neo_reference_id": "54017293",
    "name": "(2020 KT6)",
    "designation": "2020 KT6",
    "nasa_jpl_url": "http://ssd.jpl.nasa.gov/sbdb.cgi?sstr=54017293",
    "absolute_magnitude_h": 27.053,
    "estimated_diameter": {
        "kilometers": {
            "estimated_diameter_min": 0.0103265434,
            "estimated_diameter_max": 0.0230908531
        },
        "meters": {
            "estimated_diameter_min": 10.3265434474,
            "estimated_diameter_max": 23.0908531209
        },
        "miles": {
            "estimated_diameter_min": 0.0064166146,
            "estimated_diameter_max": 0.0143479865
        },
        "feet": {
            "estimated_diameter_min": 33.8797368038,
            "estimated_diameter_max": 75.7573945531
        }
    },
    "is_potentially_hazardous_asteroid": false,
    "close_approach_data": [
        {
            "close_approach_date": "1949-06-08",
            "close_approach_date_full": "1949-Jun-08 02:53",
            "epoch_date_close_approach": -649026420000,
            "relative_velocity": {
                "kilometers_per_second": "10.3463644092",
                "kilometers_per_hour": "37246.9118731366",
                "miles_per_hour": "23143.7825469498"
            },
            "miss_distance": {
                "astronomical": "0.0380652707",
                "lunar": "14.8073903023",
                "kilometers": "5694483.417693409",
                "miles": "3538387.9185266842"
            },
            "orbiting_body": "Earth"
        },
        {
            "close_approach_date": "2020-06-01",
            "close_approach_date_full": "2020-Jun-01 04:43",
            "epoch_date_close_approach": 1590986580000,
            "relative_velocity": {
                "kilometers_per_second": "10.2426681582",
                "kilometers_per_hour": "36873.6053696629",
                "miles_per_hour": "22911.8244031664"
            },
            "miss_distance": {
                "astronomical": "0.022230518",
                "lunar": "8.647671502",
                "kilometers": "3325638.14179666",
                "miles": "2066455.718487508"
            },
            "orbiting_body": "Earth"
        }
    ],
    "orbital_data": {
        "orbit_id": "1",
        "orbit_determination_date": "2020-05-30 05:12:48",
        "first_observation_date": "2020-05-29",
        "last_observation_date": "2020-05-30",
        "data_arc_in_days": 1,
        "observations_used": 17,
        "orbit_uncertainty": "8",
        "minimum_orbit_intersection": ".0218455",
        "jupiter_tisserand_invariant": "3.386",
        "epoch_osculation": "2458999.5",
        "eccentricity": ".5406537218201051",
        "semi_major_axis": "2.254624433387658",
        "inclination": "13.11323408384287",
        "ascending_node_longitude": "71.05276644237705",
        "orbital_period": "1236.544472913023",
        "perihelion_distance": "1.035653342170075",
        "perihelion_argument": "182.7272441011638",
        "aphelion_distance": "3.473595524605241",
        "perihelion_time": "2459004.028882365455",
        "mean_anomaly": "358.6814888689584",
        "mean_motion": ".2911338879320047",
        "equinox": "J2000",
        "orbit_class": {
            "orbit_class_type": "AMO",
            "orbit_class_description": "Near-Earth asteroid orbits similar to that of 1221 Amor",
            "orbit_class_range": "1.017 AU < q (perihelion) < 1.3 AU"
        }
    },
    "is_sentry_object": false
}